start=new Date('2022-12-10T00:00:00.000Z').valueOf();
sats=[{"BSTAR":"0.00021495000000","TLE_LINE2":"2 46043  53.0559  52.9354 0001905  20.2154 339.8910 15.06402366130058","LAUNCH_DATE":"2020-08-07","APOAPSIS":"548.526","TLE_LINE1":"1 46043U 20055S   22343.21028387  .00002922  00000-0  21495-3 0  9993","EPOCH":"2022-12-09T05:02:48.526368","FILE":"3685263","RCS_SIZE":"LARGE","MEAN_ANOMALY":"339.8910","PERIOD":"95.592","CLASSIFICATION_TYPE":"U","ECCENTRICITY":"0.00019050","EPHEMERIS_TYPE":"0","TIME_SYSTEM":"UTC","SEMIMAJOR_AXIS":"6925.341","GP_ID":"219839518","SITE":"AFETR","OBJECT_ID":"2020-055S","PERIAPSIS":"545.887","REV_AT_EPOCH":"13005","INCLINATION":"53.0559","REF_FRAME":"TEME","OBJECT_NAME":"STARLINK-1582","MEAN_MOTION_DDOT":"0.0000000000000","RA_OF_ASC_NODE":"52.9354","OBJECT_TYPE":"PAYLOAD","NORAD_CAT_ID":"46043","COUNTRY_CODE":"US","CENTER_NAME":"EARTH","MEAN_ELEMENT_THEORY":"SGP4","MEAN_MOTION":"15.06402366","ELEMENT_SET_NO":"999","MEAN_MOTION_DOT":"0.00002922","DECAY_DATE":null,"ARG_OF_PERICENTER":"20.2154"},{"REV_AT_EPOCH":"13006","PERIAPSIS":"546.187","OBJECT_ID":"2020-055T","REF_FRAME":"TEME","INCLINATION":"53.0550","OBJECT_TYPE":"PAYLOAD","NORAD_CAT_ID":"46044","RA_OF_ASC_NODE":"52.8656","MEAN_MOTION_DDOT":"0.0000000000000","OBJECT_NAME":"STARLINK-1584","ARG_OF_PERICENTER":"61.1852","DECAY_DATE":null,"MEAN_MOTION_DOT":"0.00005572","MEAN_MOTION":"15.06420673","ELEMENT_SET_NO":"999","MEAN_ELEMENT_THEORY":"SGP4","COUNTRY_CODE":"US","CENTER_NAME":"EARTH","RCS_SIZE":"LARGE","FILE":"3685263","APOAPSIS":"548.114","TLE_LINE1":"1 46044U 20055T   22343.22408135  .00005572  00000-0  39247-3 0  9996","EPOCH":"2022-12-09T05:22:40.628640","LAUNCH_DATE":"2020-08-07","BSTAR":"0.00039247000000","TLE_LINE2":"2 46044  53.0550  52.8656 0001391  61.1852 298.9276 15.06420673130064","MEAN_ANOMALY":"298.9276","TIME_SYSTEM":"UTC","EPHEMERIS_TYPE":"0","ECCENTRICITY":"0.00013910","CLASSIFICATION_TYPE":"U","PERIOD":"95.591","SITE":"AFETR","SEMIMAJOR_AXIS":"6925.285","GP_ID":"219839268"},{"MEAN_MOTION_DOT":"-0.00002580","DECAY_DATE":null,"ARG_OF_PERICENTER":"47.0993","MEAN_ELEMENT_THEORY":"SGP4","CENTER_NAME":"EARTH","COUNTRY_CODE":"US","ELEMENT_SET_NO":"999","MEAN_MOTION":"15.06386321","NORAD_CAT_ID":"46045","OBJECT_TYPE":"PAYLOAD","RA_OF_ASC_NODE":"51.3390","MEAN_MOTION_DDOT":"0.0000000000000","OBJECT_NAME":"STARLINK-1591","REF_FRAME":"TEME","INCLINATION":"53.0572","PERIAPSIS":"546.082","REV_AT_EPOCH":"12960","OBJECT_ID":"2020-055U","SITE":"AFETR","GP_ID":"219851498","SEMIMAJOR_AXIS":"6925.390","EPHEMERIS_TYPE":"0","CLASSIFICATION_TYPE":"U","ECCENTRICITY":"0.00016950","TIME_SYSTEM":"UTC","PERIOD":"95.593","MEAN_ANOMALY":"313.0138","TLE_LINE1":"1 46045U 20055U   22343.56783489 -.00002580  00000-0 -15443-3 0  9992","APOAPSIS":"548.429","EPOCH":"2022-12-09T13:37:40.934496","RCS_SIZE":"LARGE","FILE":"3685570","BSTAR":"-0.00015443000000","TLE_LINE2":"2 46045  53.0572  51.3390 0001695  47.0993 313.0138 15.06386321129609","LAUNCH_DATE":"2020-08-07"},{"ARG_OF_PERICENTER":"58.6193","DECAY_DATE":null,"MEAN_MOTION_DOT":"0.00019453","ELEMENT_SET_NO":"999","MEAN_MOTION":"15.06384301","MEAN_ELEMENT_THEORY":"SGP4","CENTER_NAME":"EARTH","COUNTRY_CODE":"US","NORAD_CAT_ID":"46047","OBJECT_TYPE":"PAYLOAD","RA_OF_ASC_NODE":"43.0187","MEAN_MOTION_DDOT":"0.0000000000000","OBJECT_NAME":"STARLINK-1524","REF_FRAME":"TEME","INCLINATION":"53.0580","REV_AT_EPOCH":"13019","PERIAPSIS":"546.161","OBJECT_ID":"2020-055W","SITE":"AFETR","SEMIMAJOR_AXIS":"6925.397","GP_ID":"219838768","TIME_SYSTEM":"UTC","EPHEMERIS_TYPE":"0","ECCENTRICITY":"0.00015890","CLASSIFICATION_TYPE":"U","PERIOD":"95.593","MEAN_ANOMALY":"301.4951","RCS_SIZE":"LARGE","FILE":"3685263","TLE_LINE1":"1 46047U 20055W   22343.18909344  .00019453  00000-0  13218-2 0  9994","APOAPSIS":"548.362","EPOCH":"2022-12-09T04:32:17.673216","LAUNCH_DATE":"2020-08-07","BSTAR":"0.00132180000000","TLE_LINE2":"2 46047  53.0580  43.0187 0001589  58.6193 301.4951 15.06384301130190"},{"RA_OF_ASC_NODE":"45.4358","MEAN_MOTION_DDOT":"0.0000000000000","NORAD_CAT_ID":"46048","OBJECT_TYPE":"PAYLOAD","OBJECT_NAME":"STARLINK-1527","MEAN_MOTION_DOT":"0.00004302","DECAY_DATE":null,"ARG_OF_PERICENTER":"28.6635","CENTER_NAME":"EARTH","COUNTRY_CODE":"US","MEAN_ELEMENT_THEORY":"SGP4","ELEMENT_SET_NO":"999","MEAN_MOTION":"15.06406871","PERIAPSIS":"546.039","REV_AT_EPOCH":"13009","OBJECT_ID":"2020-055X","INCLINATION":"53.0555","REF_FRAME":"TEME","ECCENTRICITY":"0.00016650","CLASSIFICATION_TYPE":"U","EPHEMERIS_TYPE":"0","TIME_SYSTEM":"UTC","PERIOD":"95.592","SITE":"AFETR","SEMIMAJOR_AXIS":"6925.327","GP_ID":"219805883","EPOCH":"2022-12-08T15:42:39.692448","TLE_LINE1":"1 46048U 20055X   22342.65462607  .00004302  00000-0  30749-3 0  9998","APOAPSIS":"548.346","FILE":"3684925","RCS_SIZE":"LARGE","TLE_LINE2":"2 46048  53.0555  45.4358 0001665  28.6635 331.4446 15.06406871130090","BSTAR":"0.00030749000000","LAUNCH_DATE":"2020-08-07","MEAN_ANOMALY":"331.4446"},{"REF_FRAME":"TEME","INCLINATION":"53.0562","PERIAPSIS":"546.075","REV_AT_EPOCH":"12975","OBJECT_ID":"2020-055Y","MEAN_MOTION_DOT":"-0.00016397","ARG_OF_PERICENTER":"31.2357","DECAY_DATE":null,"MEAN_ELEMENT_THEORY":"SGP4","CENTER_NAME":"EARTH","COUNTRY_CODE":"US","MEAN_MOTION":"15.06376868","ELEMENT_SET_NO":"999","OBJECT_TYPE":"PAYLOAD","NORAD_CAT_ID":"46049","RA_OF_ASC_NODE":"40.3917","MEAN_MOTION_DDOT":"0.0000000000000","OBJECT_NAME":"STARLINK-1530","MEAN_ANOMALY":"328.8736","TLE_LINE1":"1 46049U 20055Y   22343.77889670 -.00016397  00000-0 -10851-2 0  9996","APOAPSIS":"548.494","EPOCH":"2022-12-09T18:41:36.674880","RCS_SIZE":"LARGE","FILE":"3685504","BSTAR":"-0.00108510000000","TLE_LINE2":"2 46049  53.0562  40.3917 0001747  31.2357 328.8736 15.06376868129751","LAUNCH_DATE":"2020-08-07","SITE":"AFETR","GP_ID":"219849830","SEMIMAJOR_AXIS":"6925.419","EPHEMERIS_TYPE":"0","CLASSIFICATION_TYPE":"U","ECCENTRICITY":"0.00017470","TIME_SYSTEM":"UTC","PERIOD":"95.594"},{"MEAN_ANOMALY":"296.1695","TLE_LINE2":"2 46051  53.0573  41.4121 0001406  63.9439 296.1695 15.06393246129749","BSTAR":"-0.00008227800000","LAUNCH_DATE":"2020-08-07","APOAPSIS":"548.208","TLE_LINE1":"1 46051U 20055AA  22343.55034007 -.00001507  00000-0 -82278-4 0  9992","EPOCH":"2022-12-09T13:12:29.382048","FILE":"3685497","RCS_SIZE":"LARGE","GP_ID":"219849938","SEMIMAJOR_AXIS":"6925.369","SITE":"AFETR","PERIOD":"95.593","ECCENTRICITY":"0.00014060","CLASSIFICATION_TYPE":"U","EPHEMERIS_TYPE":"0","TIME_SYSTEM":"UTC","INCLINATION":"53.0573","REF_FRAME":"TEME","OBJECT_ID":"2020-055AA","PERIAPSIS":"546.261","REV_AT_EPOCH":"12974","CENTER_NAME":"EARTH","COUNTRY_CODE":"US","MEAN_ELEMENT_THEORY":"SGP4","MEAN_MOTION":"15.06393246","ELEMENT_SET_NO":"999","MEAN_MOTION_DOT":"-0.00001507","DECAY_DATE":null,"ARG_OF_PERICENTER":"63.9439","OBJECT_NAME":"STARLINK-1540","MEAN_MOTION_DDOT":"0.0000000000000","RA_OF_ASC_NODE":"41.4121","OBJECT_TYPE":"PAYLOAD","NORAD_CAT_ID":"46051"},{"REF_FRAME":"TEME","INCLINATION":"53.0560","OBJECT_ID":"2020-055AB","PERIAPSIS":"546.543","REV_AT_EPOCH":"13017","MEAN_ELEMENT_THEORY":"SGP4","CENTER_NAME":"EARTH","COUNTRY_CODE":"US","MEAN_MOTION":"15.06355012","ELEMENT_SET_NO":"999","MEAN_MOTION_DOT":"-0.00009515","ARG_OF_PERICENTER":"11.8503","DECAY_DATE":null,"OBJECT_NAME":"STARLINK-1541","NORAD_CAT_ID":"46052","OBJECT_TYPE":"PAYLOAD","MEAN_MOTION_DDOT":"0.0000000000000","RA_OF_ASC_NODE":"42.9786","MEAN_ANOMALY":"348.2513","TLE_LINE2":"2 46052  53.0560  42.9786 0001168  11.8503 348.2513 15.06355012130174","BSTAR":"-0.00062151000000","LAUNCH_DATE":"2020-08-07","APOAPSIS":"548.160","TLE_LINE1":"1 46052U 20055AB  22343.20386448 -.00009515  00000-0 -62151-3 0  9998","EPOCH":"2022-12-09T04:53:33.891072","RCS_SIZE":"LARGE","FILE":"3685263","SEMIMAJOR_AXIS":"6925.486","GP_ID":"219838268","SITE":"AFETR","PERIOD":"95.595","EPHEMERIS_TYPE":"0","ECCENTRICITY":"0.00011680","CLASSIFICATION_TYPE":"U","TIME_SYSTEM":"UTC"},{"TLE_LINE2":"2 46053  53.0549  40.5744 0001936  44.7140 315.4005 15.06374758129768","BSTAR":"-0.00078219000000","LAUNCH_DATE":"2020-08-07","EPOCH":"2022-12-09T17:43:10.246656","TLE_LINE1":"1 46053U 20055AC  22343.73831304 -.00011905  00000-0 -78219-3 0  9991","APOAPSIS":"548.632","FILE":"3685499","RCS_SIZE":"LARGE","MEAN_ANOMALY":"315.4005","PERIOD":"95.594","CLASSIFICATION_TYPE":"U","ECCENTRICITY":"0.00019360","EPHEMERIS_TYPE":"0","TIME_SYSTEM":"UTC","SEMIMAJOR_AXIS":"6925.426","GP_ID":"219850169","SITE":"AFETR","OBJECT_ID":"2020-055AC","PERIAPSIS":"545.950","REV_AT_EPOCH":"12976","INCLINATION":"53.0549","REF_FRAME":"TEME","OBJECT_NAME":"STARLINK-1543","RA_OF_ASC_NODE":"40.5744","MEAN_MOTION_DDOT":"0.0000000000000","OBJECT_TYPE":"PAYLOAD","NORAD_CAT_ID":"46053","COUNTRY_CODE":"US","CENTER_NAME":"EARTH","MEAN_ELEMENT_THEORY":"SGP4","ELEMENT_SET_NO":"999","MEAN_MOTION":"15.06374758","MEAN_MOTION_DOT":"-0.00011905","ARG_OF_PERICENTER":"44.7140","DECAY_DATE":null},{"ELEMENT_SET_NO":"999","MEAN_MOTION":"15.06357174","MEAN_ELEMENT_THEORY":"SGP4","CENTER_NAME":"EARTH","COUNTRY_CODE":"US","DECAY_DATE":null,"ARG_OF_PERICENTER":"66.5159","MEAN_MOTION_DOT":"0.00000938","OBJECT_NAME":"STARLINK-1548","OBJECT_TYPE":"PAYLOAD","NORAD_CAT_ID":"46054","RA_OF_ASC_NODE":"40.5441","MEAN_MOTION_DDOT":"0.0000000000000","REF_FRAME":"TEME","INCLINATION":"53.0562","OBJECT_ID":"2020-055AD","REV_AT_EPOCH":"12974","PERIAPSIS":"546.160","SEMIMAJOR_AXIS":"6925.480","GP_ID":"219851804","SITE":"AFETR","PERIOD":"95.595","TIME_SYSTEM":"UTC","EPHEMERIS_TYPE":"0","CLASSIFICATION_TYPE":"U","ECCENTRICITY":"0.00017110","MEAN_ANOMALY":"293.6010","LAUNCH_DATE":"2020-08-07","BSTAR":"0.00008198600000","TLE_LINE2":"2 46054  53.0562  40.5441 0001711  66.5159 293.6010 15.06357174129745","RCS_SIZE":"LARGE","FILE":"3685566","TLE_LINE1":"1 46054U 20055AD  22343.74570419  .00000938  00000-0  81986-4 0  9998","EPOCH":"2022-12-09T17:53:48.842016","APOAPSIS":"548.530"}];
